QIANFAN-41              
1 62242U 24232F   25213.88978429  .00000052  00000+0  62464-4 0  9999
2 62242  88.9931  54.6281 0012846 208.4527 151.5924 13.50959446 81317
QIANFAN-42              
1 62243U 24232G   25213.85931874  .00000134  00000+0  51510-4 0  9991
2 62243  88.9928  52.5579 0015924 151.1928 209.0147 14.24333489 82457
QIANFAN-43              
1 62244U 24232H   25213.88561683  .00000054  00000+0  65066-4 0  9994
2 62244  88.9935  54.6880 0014202 214.8865 145.1357 13.50952220 49925
QIANFAN-44              
1 62245U 24232J   25214.16962425  .00000097  00000+0  13103-3 0  9997
2 62245  88.9933  54.4718 0012550 209.8844 150.1592 13.50962328 81436
QIANFAN-45              
1 62246U 24232K   25213.84041059  .00000050  00000+0  58808-4 0  9994
2 62246  88.9937  54.6473 0013168 210.9427 149.0950 13.50958038 81312
QIANFAN-46              
1 62247U 24232L   25214.16136353  .00000032  00000+0  31047-4 0  9999
2 62247  88.9933  54.6891 0013103 215.9661 144.0609 13.50960148 81318
QIANFAN-47              
1 62248U 24232M   25213.86914186  .00000031  00000+0  29897-4 0  9993
2 62248  88.9929  54.6571 0013528 216.1161 143.9077 13.50959771 81304
QIANFAN-48              
1 62249U 24232N   25213.83218903  .00000048  00000+0  55862-4 0  9994
2 62249  88.9933  54.6574 0015708 219.9782 140.0214 13.50953572 81309
